{
    "links": {
        "self": "http://www.neowsapp.com/rest/v1/neo/3748516?api_key=iIulBulltgU6a56xZRHN4H3l9WmuAYTsLGpBGhQ2"
    },
    "id": "3748516",
    "neo_reference_id": "3748516",
    "name": "(2016 GC)",
    "designation": "2016 GC",
    "nasa_jpl_url": "http://ssd.jpl.nasa.gov/sbdb.cgi?sstr=3748516",
    "absolute_magnitude_h": 26.5,
    "estimated_diameter": {
        "kilometers": {
            "estimated_diameter_min": 0.0133215567,
            "estimated_diameter_max": 0.0297879063
        },
        "meters": {
            "estimated_diameter_min": 13.3215566698,
            "estimated_diameter_max": 29.7879062798
        },
        "miles": {
            "estimated_diameter_min": 0.008277629,
            "estimated_diameter_max": 0.0185093411
        },
        "feet": {
            "estimated_diameter_min": 43.7058959846,
            "estimated_diameter_max": 97.7293544391
        }
    },
    "is_potentially_hazardous_asteroid": false,
    "close_approach_data": [
        {
            "close_approach_date": "2016-03-29",
            "close_approach_date_full": "2016-Mar-29 00:57",
            "epoch_date_close_approach": 1459213020000,
            "relative_velocity": {
                "kilometers_per_second": "8.1663822492",
                "kilometers_per_hour": "29398.9760969562",
                "miles_per_hour": "18267.3804531337"
            },
            "miss_distance": {
                "astronomical": "0.0189627518",
                "lunar": "7.3765104502",
                "kilometers": "2836787.278618666",
                "miles": "1762697.8775469508"
            },
            "orbiting_body": "Earth"
        }
    ],
    "orbital_data": {
        "orbit_id": "6",
        "orbit_determination_date": "2017-04-06 08:26:57",
        "first_observation_date": "2016-04-01",
        "last_observation_date": "2016-04-12",
        "data_arc_in_days": 11,
        "observations_used": 46,
        "orbit_uncertainty": "8",
        "minimum_orbit_intersection": ".0176485",
        "jupiter_tisserand_invariant": "3.840",
        "epoch_osculation": "2457481.5",
        "eccentricity": ".4608504223763962",
        "semi_major_axis": "1.864182430647022",
        "inclination": "9.209298509255404",
        "ascending_node_longitude": "189.2007969811798",
        "orbital_period": "929.6747650942973",
        "perihelion_distance": "1.005073170096685",
        "perihelion_argument": "343.8462204669085",
        "aphelion_distance": "2.723291691197359",
        "perihelion_time": "2457463.631569085120",
        "mean_anomaly": "6.919231725843753",
        "mean_motion": ".3872321950822071",
        "equinox": "J2000",
        "orbit_class": {
            "orbit_class_type": "APO",
            "orbit_class_description": "Near-Earth asteroid orbits which cross the Earth’s orbit similar to that of 1862 Apollo",
            "orbit_class_range": "a (semi-major axis) > 1.0 AU; q (perihelion) < 1.017 AU"
        }
    },
    "is_sentry_object": false
}